
 PEER Ground Motion Database, Time Series Search Report -- NGA-West2 -- 2024-03-12


 -- Summary of PEER Ground Motion Database Search Criteria --
Magnitude Min:, 7.0
Magnitude Max:, 9.0
Rrup Min (km):, -1.0e-06
Rrup Max (km):, 99999
Rjb Min (km):, -1.0e-06
Rjb Max (km):, 99999
Vs30 Min (m/sec):, -1.0e-06
Vs30 Max (m/sec):, 99999
D9-95 Min (sec):, 20.0
D9-95 Max (sec):, 60.0
Scale Factor Min:, -1.0e-06
Scale Factor Max:, 99999
Period Array:, 
Weight Array:, 
Record Sequence Number:, 
Earthquake Name:, 
Station Name:, 
User-Defined Maximum Number of Records:, 
Pulse:, 1
Damping Ratio:, 0.05
Scaling Method:, No Scaling
Suite Average:, Arithmetic
Single-Period-Scaling Period (sec):, 
Component:, SRSS
Fault Type:, All Types


 -- Summary of Metadata of Selected Records --
Result ID, Spectral Ordinate, Record Sequence Number, Mean Squared Error, Scale Factor, Tp-Pulse Period (sec), 5-75% Duration (sec), 5-95% Duration (sec), Arias Intensity (m/sec), Earthquake Name, Year, Station Name, Magnitude, Mechanism, Rjb (km), Rrup (km), Vs30 (m/sec), Lowest Useable Frequency (Hz), Initial-search Scale Factor, Horizontal-1 Acc. Filename, Horizontal-2 Acc. Filename, Vertical Acc. Filename
1, SRSS, 12, -, 1.0, -, 18.6, 33.5, 0.1, "Kern County", 1952, "LA - Hollywood Stor FF", 7.36, Reverse, 114.62, 117.75, 316.46, 0.125, 1.0, RSN12_KERN.PEL_PEL090.AT2, RSN12_KERN.PEL_PEL180.AT2 , RSN12_KERN.PEL_PEL-UP.AT2  
2, SRSS, 13, -, 1.0, -, 16.6, 29.5, 0.1, "Kern County", 1952, "Pasadena - CIT Athenaeum", 7.36, Reverse, 122.65, 125.59, 415.13, 0.25, 1.0, RSN13_KERN_PAS180.AT2, RSN13_KERN_PAS270.AT2 , RSN13_KERN_PAS-UP.AT2  
3, SRSS, 14, -, 1.0, -, 12.4, 33.6, 0.3, "Kern County", 1952, "Santa Barbara Courthouse", 7.36, Reverse, 81.3, 82.19, 514.99, 0.375, 1.0, RSN14_KERN_SBA042.AT2, RSN14_KERN_SBA132.AT2 , RSN14_KERN_SBA-UP.AT2  
4, SRSS, 15, -, 1.0, -, 10.7, 30.3, 0.6, "Kern County", 1952, "Taft Lincoln School", 7.36, Reverse, 38.42, 38.89, 385.43, 0.125, 1.0, RSN15_KERN_TAF021.AT2, RSN15_KERN_TAF111.AT2 , RSN15_KERN_TAF-UP.AT2  
5, SRSS, 137, -, 1.0, -, 21.3, 25.9, 0.1, "Tabas_ Iran", 1978, "Bajestan", 7.35, Reverse, 119.77, 120.81, 377.56, 0.15625, 1.0, RSN137_TABAS_BAJ-L1.AT2, RSN137_TABAS_BAJ-T1.AT2 , RSN137_TABAS_BAJ-V1.AT2  
6, SRSS, 140, -, 1.0, -, 20.5, 24.2, 0.2, "Tabas_ Iran", 1978, "Ferdows", 7.35, Reverse, 89.76, 91.14, 302.64, 0.15625, 1.0, RSN140_TABAS_FER-L1.AT2, RSN140_TABAS_FER-T1.AT2 , RSN140_TABAS_FER-V1.AT2  
7, SRSS, 141, -, 1.0, -, 16.8, 26.4, 0.1, "Tabas_ Iran", 1978, "Kashmar", 7.35, Reverse, 193.91, 194.55, 280.26, 0.15625, 1.0, RSN141_TABAS_KSH-L1.AT2, RSN141_TABAS_KSH-T1.AT2 , RSN141_TABAS_KSH-V1.AT2  
8, SRSS, 142, -, 1.0, -, 22.7, 30.1, 0.0, "Tabas_ Iran", 1978, "Sedeh", 7.35, Reverse, 150.33, 151.16, 354.37, 0.15625, 1.0, RSN142_TABAS_SED-L1.AT2, RSN142_TABAS_SED-T1.AT2 , RSN142_TABAS_SED-V1.AT2  
9, SRSS, 570, -, 1.0, -, 12.4, 24.0, 0.7, "Taiwan SMART1(45)", 1986, "SMART1 C00", 7.3, Reverse, 56.01, 56.01, 309.41, 0.1, 1.0, RSN570_SMART1.45_45C00EW.AT2, RSN570_SMART1.45_45C00NS.AT2 , RSN570_SMART1.45_45C00DN.AT2  
10, SRSS, 573, -, 1.0, -, 12.7, 22.9, 0.7, "Taiwan SMART1(45)", 1986, "SMART1 I01", 7.3, Reverse, 56.18, 56.18, 275.82, 0.1, 1.0, RSN573_SMART1.45_45I01EW.AT2, RSN573_SMART1.45_45I01NS.AT2 , RSN573_SMART1.45_45I01DN.AT2  
11, SRSS, 574, -, 1.0, -, 13.1, 26.2, 0.6, "Taiwan SMART1(45)", 1986, "SMART1 I07", 7.3, Reverse, 55.82, 55.82, 309.41, 0.1, 1.0, RSN574_SMART1.45_45I07EW.AT2, RSN574_SMART1.45_45I07NS.AT2 , RSN574_SMART1.45_45I07DN.AT2  
12, SRSS, 576, -, 1.0, -, 11.1, 21.9, 0.8, "Taiwan SMART1(45)", 1986, "SMART1 M07", 7.3, Reverse, 55.11, 55.11, 327.61, 0.1, 1.0, RSN576_SMART1.45_45M07EW.AT2, RSN576_SMART1.45_45M07NS.AT2 , RSN576_SMART1.45_45M07DN.AT2  
13, SRSS, 577, -, 1.0, -, 10.2, 25.1, 0.7, "Taiwan SMART1(45)", 1986, "SMART1 O01", 7.3, Reverse, 57.9, 57.9, 267.67, 0.1, 1.0, RSN577_SMART1.45_45O01EW.AT2, RSN577_SMART1.45_45O01NS.AT2 , RSN577_SMART1.45_45O01DN.AT2  
14, SRSS, 578, -, 1.0, -, 11.4, 20.9, 1.4, "Taiwan SMART1(45)", 1986, "SMART1 O02", 7.3, Reverse, 57.13, 57.13, 285.09, 0.125, 1.0, RSN578_SMART1.45_45O02EW.AT2, RSN578_SMART1.45_45O02NS.AT2 , RSN578_SMART1.45_45O02DN.AT2  
15, SRSS, 579, -, 1.0, -, 10.1, 21.9, 0.7, "Taiwan SMART1(45)", 1986, "SMART1 O04", 7.3, Reverse, 55.18, 55.18, 288.24, 0.1, 1.0, RSN579_SMART1.45_45O04EW.AT2, RSN579_SMART1.45_45O04NS.AT2 , RSN579_SMART1.45_45O04DN.AT2  
16, SRSS, 581, -, 1.0, -, 10.5, 20.8, 0.6, "Taiwan SMART1(45)", 1986, "SMART1 O07", 7.3, Reverse, 54.17, 54.17, 314.33, 0.125, 1.0, RSN581_SMART1.45_45O07EW.AT2, RSN581_SMART1.45_45O07NS.AT2 , RSN581_SMART1.45_45O07DN.AT2  
17, SRSS, 582, -, 1.0, -, 13.4, 34.2, 0.8, "Taiwan SMART1(45)", 1986, "SMART1 O08", 7.3, Reverse, 54.8, 54.8, 357.43, 0.1, 1.0, RSN582_SMART1.45_45O08EW.AT2, RSN582_SMART1.45_45O08NS.AT2 , RSN582_SMART1.45_45O08DN.AT2  
18, SRSS, 583, -, 1.0, -, 11.2, 23.3, 0.5, "Taiwan SMART1(45)", 1986, "SMART1 O10", 7.3, Reverse, 56.94, 56.94, 320.11, 0.1, 1.0, RSN583_SMART1.45_45O10EW.AT2, RSN583_SMART1.45_45O10NS.AT2 , RSN583_SMART1.45_45O10DN.AT2  
19, SRSS, 584, -, 1.0, -, 11.8, 24.3, 0.6, "Taiwan SMART1(45)", 1986, "SMART1 O12", 7.3, Reverse, 58.0, 58.0, 303.36, 0.1, 1.0, RSN584_SMART1.45_45O12EW.AT2, RSN584_SMART1.45_45O12NS.AT2 , RSN584_SMART1.45_45O12DN.AT2  
20, SRSS, 826, -, 1.0, -, 8.0, 20.6, 0.3, "Cape Mendocino", 1992, "Eureka - Myrtle & West", 7.01, Reverse, 40.23, 41.97, 337.46, 0.16, 1.0, RSN826_CAPEMEND_EUR000.AT2, RSN826_CAPEMEND_EUR090.AT2 , RSN826_CAPEMEND_EUR-UP.AT2  
21, SRSS, 832, -, 1.0, -, 17.2, 28.5, 0.8, "Landers", 1992, "Amboy", 7.28, strike slip, 69.21, 69.21, 382.93, 0.1, 1.0, RSN832_LANDERS_ABY000.AT2, RSN832_LANDERS_ABY090.AT2 , RSN832_LANDERS_ABY-UP.AT2  
22, SRSS, 833, -, 1.0, -, 22.3, 27.7, 0.1, "Landers", 1992, "Anaheim - W Ball Rd", 7.28, strike slip, 144.9, 144.9, 269.29, 0.043, 1.0, RSN833_LANDERS_WBA000.AT2, RSN833_LANDERS_WBA090.AT2 , RSN833_LANDERS_WBA-UP.AT2  
23, SRSS, 834, -, 1.0, -, 23.4, 35.2, 0.0, "Landers", 1992, "Arcadia - Arcadia Av", 7.28, strike slip, 137.25, 137.25, 330.5, 0.09, 1.0, RSN834_LANDERS_ARC172.AT2, RSN834_LANDERS_ARC262.AT2 , RSN834_LANDERS_ARC-UP.AT2  
24, SRSS, 835, -, 1.0, -, 21.2, 29.9, 0.1, "Landers", 1992, "Arcadia - Campus Dr", 7.28, strike slip, 135.22, 135.22, 367.53, 0.2, 1.0, RSN835_LANDERS_CAM009.AT2, RSN835_LANDERS_CAM279.AT2 , RSN835_LANDERS_CAM-UP.AT2  
25, SRSS, 836, -, 1.0, -, 12.3, 25.7, 0.3, "Landers", 1992, "Baker Fire Station", 7.28, strike slip, 87.94, 87.94, 324.62, 0.1, 1.0, RSN836_LANDERS_BAK050.AT2, RSN836_LANDERS_BAK140.AT2 , RSN836_LANDERS_BAK-UP.AT2  
26, SRSS, 837, -, 1.0, -, 19.2, 25.6, 0.0, "Landers", 1992, "Baldwin Park - N Holly", 7.28, strike slip, 131.92, 131.92, 544.68, 0.06, 1.0, RSN837_LANDERS_NHO180.AT2, RSN837_LANDERS_NHO270.AT2 , RSN837_LANDERS_NHO-UP.AT2  
27, SRSS, 838, -, 1.0, 9.128, 12.3, 21.3, 0.2, "Landers", 1992, "Barstow", 7.28, strike slip, 34.86, 34.86, 370.08, 0.07, 1.0, RSN838_LANDERS_BRS000.AT2, RSN838_LANDERS_BRS090.AT2 , RSN838_LANDERS_BRS-UP.AT2  
28, SRSS, 839, -, 1.0, -, 19.8, 25.9, 0.1, "Landers", 1992, "Bell Gardens - Jaboneria", 7.28, strike slip, 154.26, 154.26, 267.13, 0.06, 1.0, RSN839_LANDERS_JAB220.AT2, RSN839_LANDERS_JAB310.AT2 , RSN839_LANDERS_JAB-UP.AT2  
29, SRSS, 840, -, 1.0, -, 25.7, 32.9, 0.0, "Landers", 1992, "Big Tujunga_ Angeles Nat F", 7.28, strike slip, 144.13, 144.13, 550.11, 0.063, 1.0, RSN840_LANDERS_TUJ262.AT2, RSN840_LANDERS_TUJ352.AT2 , RSN840_LANDERS_TUJ-UP.AT2  
30, SRSS, 842, -, 1.0, -, 21.9, 30.7, 0.1, "Landers", 1992, "Brea - S Flower Av", 7.28, strike slip, 137.44, 137.44, 322.75, 0.05, 1.0, RSN842_LANDERS_FLO020.AT2, RSN842_LANDERS_FLO290.AT2 , RSN842_LANDERS_FLO-UP.AT2  
31, SRSS, 843, -, 1.0, -, 20.6, 25.4, 0.1, "Landers", 1992, "Buena Park - La Palma", 7.28, strike slip, 150.09, 150.09, 270.96, 0.05, 1.0, RSN843_LANDERS_BPK090.AT2, RSN843_LANDERS_BPK180.AT2 , RSN843_LANDERS_BPK-UP.AT2  
32, SRSS, 844, -, 1.0, -, 23.4, 35.9, 0.2, "Landers", 1992, "Burbank - N Buena Vista", 7.28, strike slip, 157.94, 157.94, 320.57, 0.2, 1.0, RSN844_LANDERS_BUE250.AT2, RSN844_LANDERS_BUE340.AT2 , RSN844_LANDERS_BUE-UP.AT2  
33, SRSS, 845, -, 1.0, -, 21.0, 31.1, 0.0, "Landers", 1992, "Calabasas - N Las Virg", 7.28, strike slip, 190.05, 190.05, 403.72, 0.3, 1.0, RSN845_LANDERS_VIR200.AT2, RSN845_LANDERS_VIR290.AT2 , RSN845_LANDERS_VIR-UP.AT2  
34, SRSS, 846, -, 1.0, -, 28.8, 39.6, 0.0, "Landers", 1992, "Chatsworth - Devonshire", 7.28, strike slip, 172.45, 172.45, 409.4, 0.05, 1.0, RSN846_LANDERS_DEV000.AT2, RSN846_LANDERS_DEV090.AT2 , RSN846_LANDERS_DEV-UP.AT2  
35, SRSS, 847, -, 1.0, -, 18.2, 23.9, 0.2, "Landers", 1992, "Compton - Castlegate St", 7.28, strike slip, 161.23, 161.23, 266.9, 0.05, 1.0, RSN847_LANDERS_CAS000.AT2, RSN847_LANDERS_CAS270.AT2 , RSN847_LANDERS_CAS-UP.AT2  
36, SRSS, 849, -, 1.0, -, 20.0, 27.6, 0.1, "Landers", 1992, "Covina - W Badillo", 7.28, strike slip, 128.06, 128.06, 324.79, 0.1, 1.0, RSN849_LANDERS_BAD000.AT2, RSN849_LANDERS_BAD270.AT2 , RSN849_LANDERS_BAD-UP.AT2  
37, SRSS, 850, -, 1.0, -, 22.6, 31.7, 0.7, "Landers", 1992, "Desert Hot Springs", 7.28, strike slip, 21.78, 21.78, 359.0, 0.07, 1.0, RSN850_LANDERS_DSP000.AT2, RSN850_LANDERS_DSP090.AT2 , RSN850_LANDERS_DSP-UP.AT2  
38, SRSS, 851, -, 1.0, -, 28.7, 49.8, 0.1, "Landers", 1992, "Downey - Co Maint Bldg", 7.28, strike slip, 157.46, 157.46, 271.9, 0.07, 1.0, RSN851_LANDERS_DWN000.AT2, RSN851_LANDERS_DWN090.AT2 , RSN851_LANDERS_DWN-UP.AT2  
39, SRSS, 852, -, 1.0, -, 15.6, 25.8, 0.0, "Landers", 1992, "Duarte - Mel Canyon Rd.", 7.28, strike slip, 126.33, 126.33, 459.14, 0.07, 1.0, RSN852_LANDERS_MEL090.AT2, RSN852_LANDERS_MEL180.AT2 , RSN852_LANDERS_MEL-UP.AT2  
40, SRSS, 853, -, 1.0, -, 18.9, 26.9, 0.1, "Landers", 1992, "El Monte - Fairview Av", 7.28, strike slip, 135.88, 135.88, 290.63, 0.1, 1.0, RSN853_LANDERS_FAI095.AT2, RSN853_LANDERS_FAI185.AT2 , RSN853_LANDERS_FAI-UP.AT2  
41, SRSS, 854, -, 1.0, -, 17.0, 25.5, 0.1, "Landers", 1992, "Featherly Park - Maint", 7.28, strike slip, 121.8, 121.8, 367.54, 0.16, 1.0, RSN854_LANDERS_FEA000.AT2, RSN854_LANDERS_FEA090.AT2 , RSN854_LANDERS_FEA-UP.AT2  
42, SRSS, 856, -, 1.0, -, 20.9, 27.7, 0.2, "Landers", 1992, "Fountain Valley - Euclid", 7.28, strike slip, 146.89, 146.89, 270.54, 0.05, 1.0, RSN856_LANDERS_EUC022.AT2, RSN856_LANDERS_EUC292.AT2 , RSN856_LANDERS_EUC-UP.AT2  
43, SRSS, 857, -, 1.0, -, 18.0, 25.6, 0.1, "Landers", 1992, "Glendale - Las Palmas", 7.28, strike slip, 148.07, 148.07, 371.07, 0.3, 1.0, RSN857_LANDERS_GLP177.AT2, RSN857_LANDERS_GLP267.AT2 , RSN857_LANDERS_GLP-UP.AT2  
44, SRSS, 858, -, 1.0, -, 17.7, 26.5, 0.1, "Landers", 1992, "Glendora - N Oakbank", 7.28, strike slip, 122.61, 122.61, 362.31, 0.08, 1.0, RSN858_LANDERS_OAK080.AT2, RSN858_LANDERS_OAK170.AT2 , RSN858_LANDERS_OAK-UP.AT2  
45, SRSS, 859, -, 1.0, -, 17.7, 29.5, 0.1, "Landers", 1992, "Hacienda Heights - Colima", 7.28, strike slip, 136.29, 136.29, 337.0, 0.06, 1.0, RSN859_LANDERS_COM140.AT2, RSN859_LANDERS_COM230.AT2 , RSN859_LANDERS_COM-UP.AT2  
46, SRSS, 860, -, 1.0, -, 22.6, 33.1, 0.3, "Landers", 1992, "Hemet Fire Station", 7.28, strike slip, 68.66, 68.66, 328.09, 0.16, 1.0, RSN860_LANDERS_H05000.AT2, RSN860_LANDERS_H05090.AT2 , RSN860_LANDERS_H05-UP.AT2  
47, SRSS, 861, -, 1.0, -, 18.9, 24.9, 0.1, "Landers", 1992, "Huntington Bch - Waikiki", 7.28, strike slip, 156.0, 156.0, 270.54, 0.05, 1.0, RSN861_LANDERS_WAI200.AT2, RSN861_LANDERS_WAI290.AT2 , RSN861_LANDERS_WAI-UP.AT2  
48, SRSS, 862, -, 1.0, -, 25.2, 37.9, 0.3, "Landers", 1992, "Indio - Coachella Canal", 7.28, strike slip, 54.25, 54.25, 339.02, 0.1, 1.0, RSN862_LANDERS_IND000.AT2, RSN862_LANDERS_IND090.AT2 , RSN862_LANDERS_IND-UP.AT2  
49, SRSS, 863, -, 1.0, -, 26.2, 50.5, 0.1, "Landers", 1992, "Inglewood - Union Oil", 7.28, strike slip, 167.27, 167.27, 316.02, 0.07, 1.0, RSN863_LANDERS_ING000.AT2, RSN863_LANDERS_ING090.AT2 , RSN863_LANDERS_ING-UP.AT2  
50, SRSS, 864, -, 1.0, -, 21.7, 27.1, 2.3, "Landers", 1992, "Joshua Tree", 7.28, strike slip, 11.03, 11.03, 379.32, 0.07, 1.0, RSN864_LANDERS_JOS000.AT2, RSN864_LANDERS_JOS090.AT2 , RSN864_LANDERS_JOS-UP.AT2  
51, SRSS, 865, -, 1.0, -, 23.8, 36.6, 0.1, "Landers", 1992, "LA - 116th St School", 7.28, strike slip, 164.36, 164.36, 301.0, 0.07, 1.0, RSN865_LANDERS_116000.AT2, RSN865_LANDERS_116090.AT2 , RSN865_LANDERS_116-UP.AT2  
52, SRSS, 866, -, 1.0, -, 19.1, 27.2, 0.1, "Landers", 1992, "LA - E Vernon Ave", 7.28, strike slip, 157.69, 157.69, 283.14, 0.06, 1.0, RSN866_LANDERS_VER090.AT2, RSN866_LANDERS_VER180.AT2 , RSN866_LANDERS_VER-UP.AT2  
53, SRSS, 867, -, 1.0, -, 20.2, 30.5, 0.1, "Landers", 1992, "LA - Fletcher Dr", 7.28, strike slip, 153.04, 153.04, 329.06, 0.13, 1.0, RSN867_LANDERS_FLE144.AT2, RSN867_LANDERS_FLE234.AT2 , RSN867_LANDERS_FLE-UP.AT2  
54, SRSS, 868, -, 1.0, -, 16.9, 23.7, 0.0, "Landers", 1992, "LA - N Figueroa St", 7.28, strike slip, 148.7, 148.7, 364.91, 0.4, 1.0, RSN868_LANDERS_FIG058.AT2, RSN868_LANDERS_FIG328.AT2 , RSN868_LANDERS_FIG-UP.AT2  
55, SRSS, 869, -, 1.0, -, 16.5, 24.0, 0.1, "Landers", 1992, "LA - N Westmoreland", 7.28, strike slip, 159.13, 159.13, 315.06, 0.08, 1.0, RSN869_LANDERS_WST000.AT2, RSN869_LANDERS_WST270.AT2 , RSN869_LANDERS_WST-UP.AT2  
56, SRSS, 870, -, 1.0, -, 23.5, 46.0, 0.1, "Landers", 1992, "LA - Obregon Park", 7.28, strike slip, 151.7, 151.7, 349.43, 0.07, 1.0, RSN870_LANDERS_OBR000.AT2, RSN870_LANDERS_OBR090.AT2 , RSN870_LANDERS_OBR-UP.AT2  
57, SRSS, 871, -, 1.0, -, 19.7, 28.2, 0.0, "Landers", 1992, "LA - S Grand Ave", 7.28, strike slip, 161.56, 161.56, 285.28, 0.06, 1.0, RSN871_LANDERS_GR2090.AT2, RSN871_LANDERS_GR2180.AT2 , RSN871_LANDERS_GR2-UP.AT2  
58, SRSS, 872, -, 1.0, -, 24.4, 37.7, 0.1, "Landers", 1992, "LA - W 15th St", 7.28, strike slip, 160.99, 160.99, 329.52, 0.08, 1.0, RSN872_LANDERS_W15090.AT2, RSN872_LANDERS_W15180.AT2 , RSN872_LANDERS_W15-UP.AT2  
59, SRSS, 873, -, 1.0, -, 18.3, 27.2, 0.1, "Landers", 1992, "LA - W 70th St", 7.28, strike slip, 163.96, 163.96, 241.41, 0.07, 1.0, RSN873_LANDERS_W70000.AT2, RSN873_LANDERS_W70270.AT2 , RSN873_LANDERS_W70-UP.AT2  
60, SRSS, 874, -, 1.0, -, 21.7, 27.7, 0.2, "Landers", 1992, "LB - Orange Ave", 7.28, strike slip, 160.85, 160.85, 344.72, 0.05, 1.0, RSN874_LANDERS_OR2010.AT2, RSN874_LANDERS_OR2280.AT2 , RSN874_LANDERS_OR2-UP.AT2  
61, SRSS, 875, -, 1.0, -, 22.2, 30.6, 0.0, "Landers", 1992, "La Crescenta - New York", 7.28, strike slip, 148.47, 148.47, 411.55, 0.1, 1.0, RSN875_LANDERS_NYA090.AT2, RSN875_LANDERS_NYA180.AT2 , RSN875_LANDERS_NYA-UP.AT2  
62, SRSS, 876, -, 1.0, -, 18.4, 25.6, 0.1, "Landers", 1992, "La Habra - Briarcliff", 7.28, strike slip, 143.12, 143.12, 338.27, 0.06, 1.0, RSN876_LANDERS_BRC000.AT2, RSN876_LANDERS_BRC090.AT2 , RSN876_LANDERS_BRC-UP.AT2  
63, SRSS, 877, -, 1.0, -, 19.9, 28.7, 0.1, "Landers", 1992, "La Puente - Rimgrove Av", 7.28, strike slip, 132.08, 132.08, 339.52, 0.13, 1.0, RSN877_LANDERS_RIM015.AT2, RSN877_LANDERS_RIM105.AT2 , RSN877_LANDERS_RIM-UP.AT2  
64, SRSS, 878, -, 1.0, -, 21.8, 28.0, 0.2, "Landers", 1992, "Lakewood - Del Amo Blvd", 7.28, strike slip, 157.41, 157.41, 267.35, 0.04, 1.0, RSN878_LANDERS_DEL000.AT2, RSN878_LANDERS_DEL090.AT2 , RSN878_LANDERS_DEL-UP.AT2  
65, SRSS, 880, -, 1.0, -, 30.5, 40.8, 0.4, "Landers", 1992, "Mission Creek Fault", 7.28, strike slip, 26.96, 26.96, 355.42, 0.1625, 1.0, RSN880_LANDERS_MCF000.AT2, RSN880_LANDERS_MCF090.AT2 , RSN880_LANDERS_MCF-UP.AT2  
66, SRSS, 881, -, 1.0, -, 19.1, 31.9, 1.2, "Landers", 1992, "Morongo Valley Fire Station", 7.28, strike slip, 17.36, 17.36, 396.41, 0.25, 1.0, RSN881_LANDERS_MVH045.AT2, RSN881_LANDERS_MVH135.AT2 , RSN881_LANDERS_MVH-UP.AT2  
67, SRSS, 882, -, 1.0, -, 25.3, 37.9, 0.7, "Landers", 1992, "North Palm Springs", 7.28, strike slip, 26.84, 26.84, 344.67, 0.05, 1.0, RSN882_LANDERS_FHS000.AT2, RSN882_LANDERS_FHS090.AT2 , RSN882_LANDERS_FHS-UP.AT2  
68, SRSS, 883, -, 1.0, -, 27.8, 35.4, 0.1, "Landers", 1992, "Northridge - 17645 Saticoy St", 7.28, strike slip, 172.32, 172.32, 280.86, 0.1, 1.0, RSN883_LANDERS_STC090.AT2, RSN883_LANDERS_STC180.AT2 , RSN883_LANDERS_STC-UP.AT2  
69, SRSS, 884, -, 1.0, -, 26.2, 38.9, 0.4, "Landers", 1992, "Palm Springs Airport", 7.28, strike slip, 36.15, 36.15, 312.47, 0.07, 1.0, RSN884_LANDERS_PSA000.AT2, RSN884_LANDERS_PSA090.AT2 , RSN884_LANDERS_PSA-UP.AT2  
70, SRSS, 885, -, 1.0, -, 17.9, 28.2, 0.2, "Landers", 1992, "Pomona - 4th & Locust FF", 7.28, strike slip, 117.5, 117.5, 384.44, 0.12, 1.0, RSN885_LANDERS_PMN000.AT2, RSN885_LANDERS_PMN090.AT2 , RSN885_LANDERS_PMN-UP.AT2  
71, SRSS, 886, -, 1.0, -, 25.3, 33.9, 0.1, "Landers", 1992, "Puerta La Cruz", 7.28, strike slip, 94.48, 94.48, 442.7, 0.3, 1.0, RSN886_LANDERS_PLC000.AT2, RSN886_LANDERS_PLC090.AT2 , RSN886_LANDERS_PLC-UP.AT2  
72, SRSS, 887, -, 1.0, -, 18.6, 27.8, 0.1, "Landers", 1992, "Riverside Airport", 7.28, strike slip, 96.0, 96.0, 389.95, 0.16, 1.0, RSN887_LANDERS_RIV180.AT2, RSN887_LANDERS_RIV270.AT2 , RSN887_LANDERS_RIV-UP.AT2  
73, SRSS, 888, -, 1.0, -, 20.6, 38.6, 0.4, "Landers", 1992, "San Bernardino - E & Hospitality", 7.28, strike slip, 79.76, 79.76, 296.97, 0.1, 1.0, RSN888_LANDERS_HOS090.AT2, RSN888_LANDERS_HOS180.AT2 , RSN888_LANDERS_HOS-UP.AT2  
74, SRSS, 889, -, 1.0, -, 22.3, 30.8, 0.1, "Landers", 1992, "San Gabriel - E Grand Ave", 7.28, strike slip, 141.92, 141.92, 401.37, 0.06, 1.0, RSN889_LANDERS_GRN180.AT2, RSN889_LANDERS_GRN270.AT2 , RSN889_LANDERS_GRN-UP.AT2  
75, SRSS, 890, -, 1.0, -, 18.4, 30.2, 0.1, "Landers", 1992, "Santa Fe Springs - E.Joslin", 7.28, strike slip, 150.1, 150.1, 339.06, 0.04, 1.0, RSN890_LANDERS_EJS030.AT2, RSN890_LANDERS_EJS120.AT2 , RSN890_LANDERS_EJS-UP.AT2  
76, SRSS, 891, -, 1.0, -, 21.5, 31.7, 0.1, "Landers", 1992, "Silent Valley - Poppet Flat", 7.28, strike slip, 50.85, 50.85, 659.09, 0.12, 1.0, RSN891_LANDERS_SIL000.AT2, RSN891_LANDERS_SIL090.AT2 , RSN891_LANDERS_SIL-UP.AT2  
77, SRSS, 892, -, 1.0, -, 26.5, 39.9, 0.1, "Landers", 1992, "Sun Valley - Roscoe Blvd", 7.28, strike slip, 163.54, 163.54, 320.93, 0.05, 1.0, RSN892_LANDERS_RO3000.AT2, RSN892_LANDERS_RO3090.AT2 , RSN892_LANDERS_RO3-UP.AT2  
78, SRSS, 893, -, 1.0, -, 24.6, 30.3, 0.0, "Landers", 1992, "Sun Valley - Sunland", 7.28, strike slip, 158.25, 158.25, 393.67, 0.08, 1.0, RSN893_LANDERS_SUL230.AT2, RSN893_LANDERS_SUL320.AT2 , RSN893_LANDERS_SUL-UP.AT2  
79, SRSS, 894, -, 1.0, -, 25.8, 36.9, 0.1, "Landers", 1992, "Sunland - Mt Gleason Ave", 7.28, strike slip, 151.53, 151.53, 402.16, 0.05, 1.0, RSN894_LANDERS_GLE170.AT2, RSN894_LANDERS_GLE260.AT2 , RSN894_LANDERS_GLE-UP.AT2  
80, SRSS, 895, -, 1.0, -, 22.3, 38.6, 0.1, "Landers", 1992, "Tarzana - Cedar Hill", 7.28, strike slip, 175.65, 175.65, 257.21, 0.12, 1.0, RSN895_LANDERS_TAR000.AT2, RSN895_LANDERS_TAR090.AT2 , RSN895_LANDERS_TAR-UP.AT2  
81, SRSS, 896, -, 1.0, -, 22.9, 29.2, 0.1, "Landers", 1992, "Tustin - E Sycamore", 7.28, strike slip, 136.72, 136.72, 303.09, 0.04, 1.0, RSN896_LANDERS_SYC135.AT2, RSN896_LANDERS_SYC225.AT2 , RSN896_LANDERS_SYC-UP.AT2  
82, SRSS, 897, -, 1.0, -, 21.6, 30.9, 0.1, "Landers", 1992, "Twentynine Palms", 7.28, strike slip, 41.43, 41.43, 635.01, 0.12, 1.0, RSN897_LANDERS_29P000.AT2, RSN897_LANDERS_29P090.AT2 , RSN897_LANDERS_29P-UP.AT2  
83, SRSS, 898, -, 1.0, -, 21.3, 31.5, 0.0, "Landers", 1992, "Villa Park - Serrano Ave", 7.28, strike slip, 132.94, 132.94, 416.93, 0.1, 1.0, RSN898_LANDERS_SER000.AT2, RSN898_LANDERS_SER270.AT2 , RSN898_LANDERS_SER-UP.AT2  
84, SRSS, 899, -, 1.0, -, 22.3, 28.9, 0.1, "Landers", 1992, "West Covina - S Orange Ave", 7.28, strike slip, 132.32, 132.32, 334.69, 0.05, 1.0, RSN899_LANDERS_SOR225.AT2, RSN899_LANDERS_SOR315.AT2 , RSN899_LANDERS_SOR-UP.AT2  
85, SRSS, 1144, -, 1.0, -, 13.3, 23.0, 0.2, "Gulf of Aqaba", 1995, "Eilat", 7.2, strike slip, 43.29, 44.1, 354.88, 0.0625, 1.0, RSN1144_AQABA_EIL-EW.AT2, RSN1144_AQABA_EIL-NS.AT2 , RSN1144_AQABA_EIL-UP.AT2  
